start=new Date('2021-12-28T00:00:00.000Z').valueOf();
sats=[{"APOAPSIS":"548.250","EPHEMERIS_TYPE":"0","INCLINATION":"53.0556","COUNTRY_CODE":"US","CENTER_NAME":"EARTH","REV_AT_EPOCH":"4973","TLE_LINE1":"1 47562U 21009Q   21361.66243728  .00000965  00000-0  83710-4 0  9990","RA_OF_ASC_NODE":"63.6541","MEAN_MOTION":"15.06395690","OBJECT_ID":"2021-009Q","OBJECT_NAME":"STARLINK-1961","ARG_OF_PERICENTER":"76.5581","MEAN_MOTION_DDOT":"0.0000000000000","BSTAR":"0.00008371000000","TIME_SYSTEM":"UTC","ECCENTRICITY":"0.00014770","RCS_SIZE":"LARGE","PERIAPSIS":"546.204","OBJECT_TYPE":"PAYLOAD","EPOCH":"2021-12-27T15:53:54.580992","SEMIMAJOR_AXIS":"6925.362","NORAD_CAT_ID":"47562","MEAN_ANOMALY":"283.5573","TLE_LINE2":"2 47562  53.0556  63.6541 0001477  76.5581 283.5573 15.06395690 49736","MEAN_MOTION_DOT":"0.00000965","ELEMENT_SET_NO":"999","SITE":"AFETR","CLASSIFICATION_TYPE":"U","PERIOD":"95.592","GP_ID":"192604254","LAUNCH_DATE":"2021-02-04","FILE":"3253114","REF_FRAME":"TEME","MEAN_ELEMENT_THEORY":"SGP4","DECAY_DATE":null},{"OBJECT_NAME":"STARLINK-1962","MEAN_MOTION":"15.06389908","OBJECT_ID":"2021-009R","TLE_LINE1":"1 47563U 21009R   21361.55186471  .00000993  00000-0  85588-4 0  9996","RA_OF_ASC_NODE":"64.1515","REV_AT_EPOCH":"4971","COUNTRY_CODE":"US","CENTER_NAME":"EARTH","INCLINATION":"53.0571","EPHEMERIS_TYPE":"0","APOAPSIS":"548.175","SEMIMAJOR_AXIS":"6925.379","NORAD_CAT_ID":"47563","MEAN_ANOMALY":"281.3639","EPOCH":"2021-12-27T13:14:41.110944","OBJECT_TYPE":"PAYLOAD","PERIAPSIS":"546.314","RCS_SIZE":"LARGE","ECCENTRICITY":"0.00013440","TIME_SYSTEM":"UTC","BSTAR":"0.00008558800000","ARG_OF_PERICENTER":"78.7501","MEAN_MOTION_DDOT":"0.0000000000000","LAUNCH_DATE":"2021-02-04","GP_ID":"192605002","CLASSIFICATION_TYPE":"U","PERIOD":"95.593","ELEMENT_SET_NO":"999","SITE":"AFETR","MEAN_MOTION_DOT":"0.00000993","TLE_LINE2":"2 47563  53.0571  64.1515 0001344  78.7501 281.3639 15.06389908 49712","MEAN_ELEMENT_THEORY":"SGP4","DECAY_DATE":null,"REF_FRAME":"TEME","FILE":"3253114"},{"SEMIMAJOR_AXIS":"6925.350","NORAD_CAT_ID":"47564","MEAN_ANOMALY":"273.8096","EPOCH":"2021-12-27T14:51:32.062176","OBJECT_TYPE":"PAYLOAD","PERIAPSIS":"546.348","ECCENTRICITY":"0.00012530","RCS_SIZE":"LARGE","TIME_SYSTEM":"UTC","BSTAR":"0.00022609000000","ARG_OF_PERICENTER":"86.3036","MEAN_MOTION_DDOT":"0.0000000000000","OBJECT_NAME":"STARLINK-1963","OBJECT_ID":"2021-009S","MEAN_MOTION":"15.06399436","REV_AT_EPOCH":"4986","TLE_LINE1":"1 47564U 21009S   21361.61912109  .00003088  00000-0  22609-3 0  9991","RA_OF_ASC_NODE":"53.8441","INCLINATION":"53.0557","COUNTRY_CODE":"US","CENTER_NAME":"EARTH","EPHEMERIS_TYPE":"0","APOAPSIS":"548.083","REF_FRAME":"TEME","MEAN_ELEMENT_THEORY":"SGP4","DECAY_DATE":null,"FILE":"3253114","LAUNCH_DATE":"2021-02-04","GP_ID":"192603258","PERIOD":"95.592","CLASSIFICATION_TYPE":"U","SITE":"AFETR","ELEMENT_SET_NO":"999","MEAN_MOTION_DOT":"0.00003088","TLE_LINE2":"2 47564  53.0557  53.8441 0001253  86.3036 273.8096 15.06399436 49863"},{"MEAN_MOTION_DDOT":"0.0000000000000","ARG_OF_PERICENTER":"73.3135","BSTAR":"0.00033803000000","TIME_SYSTEM":"UTC","ECCENTRICITY":"0.00013950","RCS_SIZE":"LARGE","OBJECT_TYPE":"PAYLOAD","PERIAPSIS":"546.227","EPOCH":"2021-12-27T14:46:14.018592","NORAD_CAT_ID":"47565","SEMIMAJOR_AXIS":"6925.328","MEAN_ANOMALY":"286.8007","APOAPSIS":"548.159","EPHEMERIS_TYPE":"0","INCLINATION":"53.0554","COUNTRY_CODE":"US","CENTER_NAME":"EARTH","RA_OF_ASC_NODE":"53.8581","TLE_LINE1":"1 47565U 21009T   21361.61544003  .00004758  00000-0  33803-3 0  9999","REV_AT_EPOCH":"4986","OBJECT_ID":"2021-009T","MEAN_MOTION":"15.06406737","OBJECT_NAME":"STARLINK-1964","FILE":"3253114","REF_FRAME":"TEME","DECAY_DATE":null,"MEAN_ELEMENT_THEORY":"SGP4","TLE_LINE2":"2 47565  53.0554  53.8581 0001395  73.3135 286.8007 15.06406737 49868","MEAN_MOTION_DOT":"0.00004758","ELEMENT_SET_NO":"999","SITE":"AFETR","CLASSIFICATION_TYPE":"U","PERIOD":"95.592","GP_ID":"192603506","LAUNCH_DATE":"2021-02-04"},{"MEAN_ANOMALY":"281.2575","SEMIMAJOR_AXIS":"6925.361","NORAD_CAT_ID":"47566","EPOCH":"2021-12-27T14:36:56.710944","OBJECT_TYPE":"PAYLOAD","PERIAPSIS":"546.391","RCS_SIZE":"LARGE","ECCENTRICITY":"0.00012060","TIME_SYSTEM":"UTC","BSTAR":"0.00006906200000","MEAN_MOTION_DDOT":"0.0000000000000","ARG_OF_PERICENTER":"78.8549","OBJECT_NAME":"STARLINK-1965","MEAN_MOTION":"15.06395939","OBJECT_ID":"2021-009U","TLE_LINE1":"1 47566U 21009U   21361.60898971  .00000747  00000-0  69062-4 0  9996","REV_AT_EPOCH":"5000","RA_OF_ASC_NODE":"43.8819","COUNTRY_CODE":"US","CENTER_NAME":"EARTH","INCLINATION":"53.0563","EPHEMERIS_TYPE":"0","APOAPSIS":"548.061","DECAY_DATE":null,"MEAN_ELEMENT_THEORY":"SGP4","REF_FRAME":"TEME","FILE":"3253114","LAUNCH_DATE":"2021-02-04","GP_ID":"192604755","PERIOD":"95.592","CLASSIFICATION_TYPE":"U","ELEMENT_SET_NO":"999","SITE":"AFETR","MEAN_MOTION_DOT":"0.00000747","TLE_LINE2":"2 47566  53.0563  43.8819 0001206  78.8549 281.2575 15.06395939 50000"},{"REF_FRAME":"TEME","DECAY_DATE":null,"MEAN_ELEMENT_THEORY":"SGP4","FILE":"3253114","GP_ID":"192604502","LAUNCH_DATE":"2021-02-04","MEAN_MOTION_DOT":"0.00001297","TLE_LINE2":"2 47567  53.0553  83.4281 0001398  84.1448 275.9700 15.06394458 49455","PERIOD":"95.592","CLASSIFICATION_TYPE":"U","SITE":"AFETR","ELEMENT_SET_NO":"999","EPOCH":"2021-12-27T17:05:33.784512","PERIAPSIS":"546.262","OBJECT_TYPE":"PAYLOAD","SEMIMAJOR_AXIS":"6925.366","MEAN_ANOMALY":"275.9700","NORAD_CAT_ID":"47567","MEAN_MOTION_DDOT":"0.0000000000000","ARG_OF_PERICENTER":"84.1448","ECCENTRICITY":"0.00013980","RCS_SIZE":"LARGE","TIME_SYSTEM":"UTC","BSTAR":"0.00010596000000","MEAN_MOTION":"15.06394458","OBJECT_ID":"2021-009V","OBJECT_NAME":"STARLINK-1966","INCLINATION":"53.0553","CENTER_NAME":"EARTH","COUNTRY_CODE":"US","APOAPSIS":"548.199","EPHEMERIS_TYPE":"0","TLE_LINE1":"1 47567U 21009V   21361.71219658  .00001297  00000-0  10596-3 0  9996","REV_AT_EPOCH":"4945","RA_OF_ASC_NODE":"83.4281"},{"FILE":"3253114","REF_FRAME":"TEME","MEAN_ELEMENT_THEORY":"SGP4","DECAY_DATE":null,"SITE":"AFETR","ELEMENT_SET_NO":"999","PERIOD":"95.593","CLASSIFICATION_TYPE":"U","TLE_LINE2":"2 47568  53.0540  83.3089 0001315  88.5513 271.5626 15.06391135 49466","MEAN_MOTION_DOT":"-0.00000235","LAUNCH_DATE":"2021-02-04","GP_ID":"192603759","BSTAR":"0.00000309850000","TIME_SYSTEM":"UTC","ECCENTRICITY":"0.00013150","RCS_SIZE":"LARGE","MEAN_MOTION_DDOT":"0.0000000000000","ARG_OF_PERICENTER":"88.5513","MEAN_ANOMALY":"271.5626","SEMIMAJOR_AXIS":"6925.376","NORAD_CAT_ID":"47568","OBJECT_TYPE":"PAYLOAD","PERIAPSIS":"546.330","EPOCH":"2021-12-27T17:42:43.173216","TLE_LINE1":"1 47568U 21009W   21361.73799969 -.00000235  00000-0  30985-5 0  9995","RA_OF_ASC_NODE":"83.3089","REV_AT_EPOCH":"4946","EPHEMERIS_TYPE":"0","APOAPSIS":"548.151","INCLINATION":"53.0540","CENTER_NAME":"EARTH","COUNTRY_CODE":"US","OBJECT_NAME":"STARLINK-1967","OBJECT_ID":"2021-009W","MEAN_MOTION":"15.06391135"},{"FILE":"3253114","MEAN_ELEMENT_THEORY":"SGP4","DECAY_DATE":null,"REF_FRAME":"TEME","LAUNCH_DATE":"2021-02-04","GP_ID":"192604007","SITE":"AFETR","ELEMENT_SET_NO":"999","CLASSIFICATION_TYPE":"U","PERIOD":"93.375","TLE_LINE2":"2 47569  53.0518  46.0152 0002890  22.8815 337.2318 15.42163687 49988","MEAN_MOTION_DOT":"0.00021049","SEMIMAJOR_AXIS":"6817.862","MEAN_ANOMALY":"337.2318","NORAD_CAT_ID":"47569","OBJECT_TYPE":"PAYLOAD","PERIAPSIS":"437.756","EPOCH":"2021-12-27T14:52:03.207648","TIME_SYSTEM":"UTC","BSTAR":"0.00049169000000","RCS_SIZE":"LARGE","ECCENTRICITY":"0.00028900","MEAN_MOTION_DDOT":"0.0000000000000","ARG_OF_PERICENTER":"22.8815","OBJECT_NAME":"STARLINK-1968","OBJECT_ID":"2021-009X","MEAN_MOTION":"15.42163687","RA_OF_ASC_NODE":"46.0152","TLE_LINE1":"1 47569U 21009X   21361.61948157  .00021049  00000-0  49169-3 0  9995","REV_AT_EPOCH":"4998","EPHEMERIS_TYPE":"0","APOAPSIS":"441.697","CENTER_NAME":"EARTH","COUNTRY_CODE":"US","INCLINATION":"53.0518"},{"OBJECT_NAME":"STARLINK-1969","OBJECT_ID":"2021-009Y","MEAN_MOTION":"15.06397331","TLE_LINE1":"1 47570U 21009Y   21361.53158650  .00003539  00000-0  25637-3 0  9997","RA_OF_ASC_NODE":"44.2347","REV_AT_EPOCH":"4999","CENTER_NAME":"EARTH","COUNTRY_CODE":"US","INCLINATION":"53.0543","EPHEMERIS_TYPE":"0","APOAPSIS":"548.156","NORAD_CAT_ID":"47570","SEMIMAJOR_AXIS":"6925.357","MEAN_ANOMALY":"282.6593","EPOCH":"2021-12-27T12:45:29.073600","OBJECT_TYPE":"PAYLOAD","PERIAPSIS":"546.288","RCS_SIZE":"LARGE","ECCENTRICITY":"0.00013490","TIME_SYSTEM":"UTC","BSTAR":"0.00025637000000","ARG_OF_PERICENTER":"77.4547","MEAN_MOTION_DDOT":"0.0000000000000","LAUNCH_DATE":"2021-02-04","GP_ID":"192568765","PERIOD":"95.592","CLASSIFICATION_TYPE":"U","SITE":"AFETR","ELEMENT_SET_NO":"999","MEAN_MOTION_DOT":"0.00003539","TLE_LINE2":"2 47570  53.0543  44.2347 0001349  77.4547 282.6593 15.06397331 49994","MEAN_ELEMENT_THEORY":"SGP4","DECAY_DATE":null,"REF_FRAME":"TEME","FILE":"3252683"},{"FILE":"3252683","REF_FRAME":"TEME","DECAY_DATE":null,"MEAN_ELEMENT_THEORY":"SGP4","LAUNCH_DATE":"2021-02-04","GP_ID":"192569015","SITE":"AFETR","ELEMENT_SET_NO":"999","PERIOD":"95.592","CLASSIFICATION_TYPE":"U","TLE_LINE2":"2 47571  53.0557  54.4944 0001415  77.0359 283.0787 15.06398156 49847","MEAN_MOTION_DOT":"-0.00000820","SEMIMAJOR_AXIS":"6925.354","NORAD_CAT_ID":"47571","MEAN_ANOMALY":"283.0787","OBJECT_TYPE":"PAYLOAD","PERIAPSIS":"546.239","EPOCH":"2021-12-27T11:24:31.872096","BSTAR":"-0.00003613000000","TIME_SYSTEM":"UTC","ECCENTRICITY":"0.00014150","RCS_SIZE":"LARGE","MEAN_MOTION_DDOT":"0.0000000000000","ARG_OF_PERICENTER":"77.0359","OBJECT_NAME":"STARLINK-1970","OBJECT_ID":"2021-009Z","MEAN_MOTION":"15.06398156","TLE_LINE1":"1 47571U 21009Z   21361.47536889 -.00000820  00000-0 -36130-4 0  9998","REV_AT_EPOCH":"4984","RA_OF_ASC_NODE":"54.4944","APOAPSIS":"548.199","EPHEMERIS_TYPE":"0","INCLINATION":"53.0557","CENTER_NAME":"EARTH","COUNTRY_CODE":"US"}];
